<?xml version="1.0" encoding="UTF-8"?>
<ndm xmlns:xsi="http://www.w3.org/2001/XMLSchema-instance" xsi:noNamespaceSchemaLocation="https://sanaregistry.org/r/ndmxml_unqualified/ndmxml-2.0.0-master-2.0.xsd">
<omm id="CCSDS_OMM_VERS" version="2.0">
<header><CREATION_DATE/><ORIGINATOR/></header><body><segment><metadata><OBJECT_NAME>QIANFAN-17</OBJECT_NAME><OBJECT_ID>2024-140S</OBJECT_ID><CENTER_NAME>EARTH</CENTER_NAME><REF_FRAME>TEME</REF_FRAME><TIME_SYSTEM>UTC</TIME_SYSTEM><MEAN_ELEMENT_THEORY>SGP4</MEAN_ELEMENT_THEORY></metadata><data><meanElements><EPOCH>2025-09-30T13:23:24.213696</EPOCH><MEAN_MOTION>13.50971901</MEAN_MOTION><ECCENTRICITY>.0016742</ECCENTRICITY><INCLINATION>88.9776</INCLINATION><RA_OF_ASC_NODE>307.0142</RA_OF_ASC_NODE><ARG_OF_PERICENTER>62.0603</ARG_OF_PERICENTER><MEAN_ANOMALY>298.2241</MEAN_ANOMALY></meanElements><tleParameters><EPHEMERIS_TYPE>0</EPHEMERIS_TYPE><CLASSIFICATION_TYPE>U</CLASSIFICATION_TYPE><NORAD_CAT_ID>60395</NORAD_CAT_ID><ELEMENT_SET_NO>999</ELEMENT_SET_NO><REV_AT_EPOCH>5825</REV_AT_EPOCH><BSTAR>.1591E-3</BSTAR><MEAN_MOTION_DOT>.115E-5</MEAN_MOTION_DOT><MEAN_MOTION_DDOT>0</MEAN_MOTION_DDOT></tleParameters></data></segment></body></omm>
<omm id="CCSDS_OMM_VERS" version="2.0">
<header><CREATION_DATE/><ORIGINATOR/></header><body><segment><metadata><OBJECT_NAME>QIANFAN-18</OBJECT_NAME><OBJECT_ID>2024-140T</OBJECT_ID><CENTER_NAME>EARTH</CENTER_NAME><REF_FRAME>TEME</REF_FRAME><TIME_SYSTEM>UTC</TIME_SYSTEM><MEAN_ELEMENT_THEORY>SGP4</MEAN_ELEMENT_THEORY></metadata><data><meanElements><EPOCH>2025-09-30T12:53:48.977088</EPOCH><MEAN_MOTION>13.50973390</MEAN_MOTION><ECCENTRICITY>.0015643</ECCENTRICITY><INCLINATION>88.9768</INCLINATION><RA_OF_ASC_NODE>306.5554</RA_OF_ASC_NODE><ARG_OF_PERICENTER>46.7475</ARG_OF_PERICENTER><MEAN_ANOMALY>313.4979</MEAN_ANOMALY></meanElements><tleParameters><EPHEMERIS_TYPE>0</EPHEMERIS_TYPE><CLASSIFICATION_TYPE>U</CLASSIFICATION_TYPE><NORAD_CAT_ID>60396</NORAD_CAT_ID><ELEMENT_SET_NO>999</ELEMENT_SET_NO><REV_AT_EPOCH>5764</REV_AT_EPOCH><BSTAR>.12113E-3</BSTAR><MEAN_MOTION_DOT>.9E-6</MEAN_MOTION_DOT><MEAN_MOTION_DDOT>0</MEAN_MOTION_DDOT></tleParameters></data></segment></body></omm>
<omm id="CCSDS_OMM_VERS" version="2.0">
<header><CREATION_DATE/><ORIGINATOR/></header><body><segment><metadata><OBJECT_NAME>QIANFAN-19</OBJECT_NAME><OBJECT_ID>2024-185A</OBJECT_ID><CENTER_NAME>EARTH</CENTER_NAME><REF_FRAME>TEME</REF_FRAME><TIME_SYSTEM>UTC</TIME_SYSTEM><MEAN_ELEMENT_THEORY>SGP4</MEAN_ELEMENT_THEORY></metadata><data><meanElements><EPOCH>2025-09-30T13:35:44.312640</EPOCH><MEAN_MOTION>14.14174787</MEAN_MOTION><ECCENTRICITY>.0007339</ECCENTRICITY><INCLINATION>88.9756</INCLINATION><RA_OF_ASC_NODE>86.3275</RA_OF_ASC_NODE><ARG_OF_PERICENTER>163.4362</ARG_OF_PERICENTER><MEAN_ANOMALY>196.7066</MEAN_ANOMALY></meanElements><tleParameters><EPHEMERIS_TYPE>0</EPHEMERIS_TYPE><CLASSIFICATION_TYPE>U</CLASSIFICATION_TYPE><NORAD_CAT_ID>61552</NORAD_CAT_ID><ELEMENT_SET_NO>999</ELEMENT_SET_NO><REV_AT_EPOCH>5932</REV_AT_EPOCH><BSTAR>.54226E-3</BSTAR><MEAN_MOTION_DOT>.1047E-4</MEAN_MOTION_DOT><MEAN_MOTION_DDOT>0</MEAN_MOTION_DDOT></tleParameters></data></segment></body></omm>
<omm id="CCSDS_OMM_VERS" version="2.0">
<header><CREATION_DATE/><ORIGINATOR/></header><body><segment><metadata><OBJECT_NAME>QIANFAN-20</OBJECT_NAME><OBJECT_ID>2024-185B</OBJECT_ID><CENTER_NAME>EARTH</CENTER_NAME><REF_FRAME>TEME</REF_FRAME><TIME_SYSTEM>UTC</TIME_SYSTEM><MEAN_ELEMENT_THEORY>SGP4</MEAN_ELEMENT_THEORY></metadata><data><meanElements><EPOCH>2025-09-30T12:41:57.569856</EPOCH><MEAN_MOTION>14.08725805</MEAN_MOTION><ECCENTRICITY>.0004935</ECCENTRICITY><INCLINATION>88.9755</INCLINATION><RA_OF_ASC_NODE>86.5819</RA_OF_ASC_NODE><ARG_OF_PERICENTER>196.7812</ARG_OF_PERICENTER><MEAN_ANOMALY>163.3209</MEAN_ANOMALY></meanElements><tleParameters><EPHEMERIS_TYPE>0</EPHEMERIS_TYPE><CLASSIFICATION_TYPE>U</CLASSIFICATION_TYPE><NORAD_CAT_ID>61553</NORAD_CAT_ID><ELEMENT_SET_NO>999</ELEMENT_SET_NO><REV_AT_EPOCH>5918</REV_AT_EPOCH><BSTAR>.54788E-3</BSTAR><MEAN_MOTION_DOT>.957E-5</MEAN_MOTION_DOT><MEAN_MOTION_DDOT>0</MEAN_MOTION_DDOT></tleParameters></data></segment></body></omm>
<omm id="CCSDS_OMM_VERS" version="2.0">
<header><CREATION_DATE/><ORIGINATOR/></header><body><segment><metadata><OBJECT_NAME>QIANFAN-21</OBJECT_NAME><OBJECT_ID>2024-185C</OBJECT_ID><CENTER_NAME>EARTH</CENTER_NAME><REF_FRAME>TEME</REF_FRAME><TIME_SYSTEM>UTC</TIME_SYSTEM><MEAN_ELEMENT_THEORY>SGP4</MEAN_ELEMENT_THEORY></metadata><data><meanElements><EPOCH>2025-09-30T12:35:11.679936</EPOCH><MEAN_MOTION>14.22446593</MEAN_MOTION><ECCENTRICITY>.0008848</ECCENTRICITY><INCLINATION>88.9672</INCLINATION><RA_OF_ASC_NODE>85.5562</RA_OF_ASC_NODE><ARG_OF_PERICENTER>235.0489</ARG_OF_PERICENTER><MEAN_ANOMALY>124.9872</MEAN_ANOMALY></meanElements><tleParameters><EPHEMERIS_TYPE>0</EPHEMERIS_TYPE><CLASSIFICATION_TYPE>U</CLASSIFICATION_TYPE><NORAD_CAT_ID>61554</NORAD_CAT_ID><ELEMENT_SET_NO>999</ELEMENT_SET_NO><REV_AT_EPOCH>5956</REV_AT_EPOCH><BSTAR>.62086E-3</BSTAR><MEAN_MOTION_DOT>.1397E-4</MEAN_MOTION_DOT><MEAN_MOTION_DDOT>0</MEAN_MOTION_DDOT></tleParameters></data></segment></body></omm>
<omm id="CCSDS_OMM_VERS" version="2.0">
<header><CREATION_DATE/><ORIGINATOR/></header><body><segment><metadata><OBJECT_NAME>QIANFAN-22</OBJECT_NAME><OBJECT_ID>2024-185D</OBJECT_ID><CENTER_NAME>EARTH</CENTER_NAME><REF_FRAME>TEME</REF_FRAME><TIME_SYSTEM>UTC</TIME_SYSTEM><MEAN_ELEMENT_THEORY>SGP4</MEAN_ELEMENT_THEORY></metadata><data><meanElements><EPOCH>2025-09-30T12:39:20.143872</EPOCH><MEAN_MOTION>13.86263422</MEAN_MOTION><ECCENTRICITY>.0005653</ECCENTRICITY><INCLINATION>88.9739</INCLINATION><RA_OF_ASC_NODE>87.2693</RA_OF_ASC_NODE><ARG_OF_PERICENTER>202.6016</ARG_OF_PERICENTER><MEAN_ANOMALY>157.4907</MEAN_ANOMALY></meanElements><tleParameters><EPHEMERIS_TYPE>0</EPHEMERIS_TYPE><CLASSIFICATION_TYPE>U</CLASSIFICATION_TYPE><NORAD_CAT_ID>61555</NORAD_CAT_ID><ELEMENT_SET_NO>999</ELEMENT_SET_NO><REV_AT_EPOCH>5879</REV_AT_EPOCH><BSTAR>.43504E-3</BSTAR><MEAN_MOTION_DOT>.516E-5</MEAN_MOTION_DOT><MEAN_MOTION_DDOT>0</MEAN_MOTION_DDOT></tleParameters></data></segment></body></omm>
<omm id="CCSDS_OMM_VERS" version="2.0">
<header><CREATION_DATE/><ORIGINATOR/></header><body><segment><metadata><OBJECT_NAME>QIANFAN-23</OBJECT_NAME><OBJECT_ID>2024-185E</OBJECT_ID><CENTER_NAME>EARTH</CENTER_NAME><REF_FRAME>TEME</REF_FRAME><TIME_SYSTEM>UTC</TIME_SYSTEM><MEAN_ELEMENT_THEORY>SGP4</MEAN_ELEMENT_THEORY></metadata><data><meanElements><EPOCH>2025-09-30T12:05:14.222112</EPOCH><MEAN_MOTION>14.16162121</MEAN_MOTION><ECCENTRICITY>.0007701</ECCENTRICITY><INCLINATION>88.9749</INCLINATION><RA_OF_ASC_NODE>86.1786</RA_OF_ASC_NODE><ARG_OF_PERICENTER>176.9418</ARG_OF_PERICENTER><MEAN_ANOMALY>183.1818</MEAN_ANOMALY></meanElements><tleParameters><EPHEMERIS_TYPE>0</EPHEMERIS_TYPE><CLASSIFICATION_TYPE>U</CLASSIFICATION_TYPE><NORAD_CAT_ID>61556</NORAD_CAT_ID><ELEMENT_SET_NO>999</ELEMENT_SET_NO><REV_AT_EPOCH>5938</REV_AT_EPOCH><BSTAR>.61065E-3</BSTAR><MEAN_MOTION_DOT>.1221E-4</MEAN_MOTION_DOT><MEAN_MOTION_DDOT>0</MEAN_MOTION_DDOT></tleParameters></data></segment></body></omm>
<omm id="CCSDS_OMM_VERS" version="2.0">
<header><CREATION_DATE/><ORIGINATOR/></header><body><segment><metadata><OBJECT_NAME>QIANFAN-24</OBJECT_NAME><OBJECT_ID>2024-185F</OBJECT_ID><CENTER_NAME>EARTH</CENTER_NAME><REF_FRAME>TEME</REF_FRAME><TIME_SYSTEM>UTC</TIME_SYSTEM><MEAN_ELEMENT_THEORY>SGP4</MEAN_ELEMENT_THEORY></metadata><data><meanElements><EPOCH>2025-09-30T12:27:02.147904</EPOCH><MEAN_MOTION>14.23651164</MEAN_MOTION><ECCENTRICITY>.0010014</ECCENTRICITY><INCLINATION>88.9731</INCLINATION><RA_OF_ASC_NODE>85.7015</RA_OF_ASC_NODE><ARG_OF_PERICENTER>165.1453</ARG_OF_PERICENTER><MEAN_ANOMALY>195.0035</MEAN_ANOMALY></meanElements><tleParameters><EPHEMERIS_TYPE>0</EPHEMERIS_TYPE><CLASSIFICATION_TYPE>U</CLASSIFICATION_TYPE><NORAD_CAT_ID>61557</NORAD_CAT_ID><ELEMENT_SET_NO>999</ELEMENT_SET_NO><REV_AT_EPOCH>5960</REV_AT_EPOCH><BSTAR>.60191E-3</BSTAR><MEAN_MOTION_DOT>.1387E-4</MEAN_MOTION_DOT><MEAN_MOTION_DDOT>0</MEAN_MOTION_DDOT></tleParameters></data></segment></body></omm>

</ndm>
