QIANFAN-17              
1 60395U 24140S   25273.55791914  .00000115  00000+0  15910-3 0  9999
2 60395  88.9776 307.0142 0016742  62.0603 298.2241 13.50971901 58258
QIANFAN-18              
1 60396U 24140T   25273.53737242  .00000090  00000+0  12113-3 0  9996
2 60396  88.9768 306.5554 0015643  46.7475 313.4979 13.50973390 57640
QIANFAN-19              
1 61552U 24185A   25273.56648510  .00001047  00000+0  54226-3 0  9996
2 61552  88.9756  86.3275 0007339 163.4362 196.7066 14.14174787 59320
QIANFAN-20              
1 61553U 24185B   25273.52913854  .00000957  00000+0  54788-3 0  9991
2 61553  88.9755  86.5819 0004935 196.7812 163.3209 14.08725805 59183
QIANFAN-21              
1 61554U 24185C   25273.52444074  .00001397  00000+0  62086-3 0  9994
2 61554  88.9672  85.5562 0008848 235.0489 124.9872 14.22446593 59561
QIANFAN-22              
1 61555U 24185D   25273.52731648  .00000516  00000+0  43504-3 0  9997
2 61555  88.9739  87.2693 0005653 202.6016 157.4907 13.86263422 58798
QIANFAN-23              
1 61556U 24185E   25273.50363683  .00001221  00000+0  61065-3 0  9992
2 61556  88.9749  86.1786 0007701 176.9418 183.1818 14.16162121 59387
QIANFAN-24              
1 61557U 24185F   25273.51877486  .00001387  00000+0  60191-3 0  9997
2 61557  88.9731  85.7015 0010014 165.1453 195.0035 14.23651164 59605
